0 FLOCK 4BE 7 2409
1 60481U 24149P   26149.78125000  .00000000  00000+0  80109-3 0    07
2 60481 097.3766 232.7043 0001771 353.8391 103.0023 15.39483714    02
0 FLOCK 4BE 28 24AE
1 60519U PLANET   26149.78125000  .00000000  00000+0  53793-3 0    08
2 60519 097.3753 235.2756 0003713 014.7342 247.9009 15.44192460    09
0 FLOCK 4Q 2 24BD
1 58320U 23174BS  26149.78129630  .00000000  00000+0  63214-3 0    04
2 58320 097.3840 237.7958 0006274 190.5277 128.4960 15.48717850    08
0 FLOCK 4Q 36 24C6
1 58274U 23174U   26149.78129630  .00000000  00000+0  68478-3 0    09
2 58274 097.3860 241.5295 0007260 195.8606 321.0724 15.56472880    04
0 FLOCK 4Q 4 24D1
1 58327U 23174BZ  26149.78129630  .00000000  00000+0  64559-3 0    04
2 58327 097.3832 237.0970 0005651 212.8371 096.3492 15.47749832    01
0 FLOCK 4Q 33 24D5
1 58308U 23174BE  26149.78129630  .00000000  00000+0  66264-3 0    08
2 58308 097.3866 241.1773 0006282 182.5769 101.1373 15.56396323    05
0 FLOCK 4H 7 24D8
1 66710U 25276AW  26149.78128472  .00000000  00000+0  84072-3 0    09
2 66710 097.4194 223.6120 0003872 096.0093 030.6232 15.19825932    00
0 FLOCK 4BE 11 24DA
1 60501U PLANET   26149.78125000  .00000000  00000+0  58010-3 0    06
2 60501 097.3707 233.7310 0002806 004.7434 108.1963 15.42308934    01
0 FLOCK 4BE 14 24DB
1 60517U PLANET   26149.78125000  .00000000  00000+0  61734-3 0    00
2 60517 097.3703 233.3958 0004076 020.7318 306.0277 15.40357920    02
0 FLOCK 4BE 1 24DC
1 60518U PLANET   26149.78125000  .00000000  00000+0  58236-3 0    04
2 60518 097.3786 234.6078 0003693 022.3140 110.9365 15.41917820    08
0 FLOCK 4Q 35 24DD
1 58309U 23174BF  26149.78129630  .00000000  00000+0  67489-3 0    09
2 58309 097.3883 241.2353 0005745 196.7280 217.1013 15.55450099    07
0 FLOCK 4BE 29 24DE
1 60509U PLANET   26149.78125000  .00000000  00000+0  59844-3 0    00
2 60509 097.3816 235.3857 0002628 034.7015 015.6849 15.43472896    09
0 FLOCK 4Q 7 24DF
1 58318U 23174BQ  26149.78129630  .00000000  00000+0  70518-3 0    06
2 58318 097.3917 240.6602 0006752 191.8124 063.6629 15.54251812    05
0 FLOCK 4Q 16 24E5
1 58271U 23174R   26149.78129630  .00000000  00000+0  54670-3 0    05
2 58271 097.3837 237.4745 0005865 216.0544 288.9567 15.48368913    03
0 FLOCK 4G 22 24E9
1 62645U 25009AN  26149.78127315  .00000000  00000+0  60853-3 0    02
2 62645 097.4017 231.8899 0002569 043.2544 082.1160 15.28860748    04
0 FLOCK 4Q 9 24EB
1 58322U 23174BU  26149.78129630  .00000000  00000+0  65692-3 0    08
2 58322 097.3875 237.8613 0006834 192.0880 336.2065 15.48849165    06
0 FLOCK 4Q 22 24ED
1 58306U 23174BC  26149.78129630  .00000000  00000+0  69952-3 0    03
2 58306 097.3824 241.3574 0005366 188.3935 032.4147 15.58032734    09
0 FLOCK 4Q 11 24EE
1 58273U 23174T   26149.78129630  .00000000  00000+0  58635-3 0    02
2 58273 097.3876 238.0552 0005526 209.3459 019.6610 15.48773051    06
0 FLOCK 4Q 31 24F2
1 58285U 23174AF  26149.78129630  .00000000  00000+0  71414-3 0    05
2 58285 097.3918 241.2711 0006460 199.1275 066.7104 15.56059781    06
0 FLOCK 4Q 13 24F3
1 58328U 23174CA  26149.78129630  .00000000  00000+0  58471-3 0    01
2 58328 097.4009 240.0704 0006063 199.5692 046.2264 15.50791199    01
0 FLOCK 4Q 30 24F4
1 58286U 23174AG  26149.78129630  .00000000  00000+0  73809-3 0    06
2 58286 097.3939 241.5026 0005422 196.8514 201.5217 15.56397911    03
0 FLOCK 4Q 26 24F5
1 58284U 23174AE  26149.78129630  .00000000  00000+0  63055-3 0    06
2 58284 097.3882 241.5995 0006117 202.1454 269.2192 15.55966151    09
0 FLOCK 4Q 28 24F6
1 58280U 23174AA  26149.78129630  .00000000  00000+0  61867-3 0    01
2 58280 097.3886 240.3836 0005512 194.5185 244.0277 15.53665606    07
0 FLOCK 4BE 36 24F7
1 60486U PLANET   26149.78125000  .00000000  00000+0  52132-3 0    07
2 60486 097.3750 233.9974 0002605 359.3671 131.9481 15.42082341    08
0 FLOCK 4BE 13 24FA
1 60512U PLANET   26149.78125000  .00000000  00000+0  52507-3 0    03
2 60512 097.3727 234.0085 0003274 354.9261 334.3813 15.41336001    08
0 FLOCK 4Q 29 24FB
1 58304U 23174BA  26149.78129630  .00000000  00000+0  62048-3 0    00
2 58304 097.3939 240.8977 0005935 189.4015 324.7271 15.54374348    09
0 FLOCK 4Q 27 24FD
1 58282U 23174AC  26149.78129630  .00000000  00000+0  57585-3 0    05
2 58282 097.3819 239.8381 0005163 191.9588 241.2839 15.53481729    08
0 FLOCK 4G 10 24FE
1 62670U 25009BP  26149.78127315  .00000000  00000+0  64215-3 0    06
2 62670 097.3933 231.0423 0005291 056.7536 323.4036 15.28874555    02
0 FLOCK 4BE 3 2500
1 60561U 24149CX  26149.78125000  .00000000  00000+0  60817-3 0    00
2 60561 097.3705 233.5250 0003593 015.4575 027.9799 15.40969165    07
0 FLOCK 4BE 5 2501
1 60559U 24149CV  26149.78125000  .00000000  00000+0  63642-3 0    06
2 60559 097.3850 233.6114 0003110 030.3339 038.2426 15.39705140    05
0 FLOCK 4G 3 2504
1 62639U 25009AG  26149.78127315  .00000000  00000+0  46902-3 0    04
2 62639 097.4032 231.8786 0002986 040.8969 198.4227 15.28925867    05
0 FLOCK 4BE 6 2506
1 60516U PLANET   26149.78125000  .00000000  00000+0  57691-3 0    06
2 60516 097.3796 233.2748 0003297 028.1602 299.5747 15.39026243    08
0 FLOCK 4BE 17 250A
1 60492U PLANET   26149.78125000  .00000000  00000+0  59704-3 0    06
2 60492 097.3781 233.0130 0001897 356.3922 114.0082 15.39188707    00
0 FLOCK 4BE 34 250B
1 60495U PLANET   26149.78125000  .00000000  00000+0  59959-3 0    01
2 60495 097.3788 233.9867 0002924 014.6156 012.1738 15.40564910    03
0 FLOCK 4BE 22 250D
1 60494U PLANET   26149.78125000  .00000000  00000+0  52069-3 0    05
2 60494 097.3740 233.1763 0002618 001.8946 120.4063 15.40544640    04
0 FLOCK 4BE 9 250E
1 60514U 24149AY  26149.78125000  .00000000  00000+0  62048-3 0    06
2 60514 097.3799 233.8823 0002746 037.2881 010.8147 15.40187521    04
0 FLOCK 4H 10 2510
1 66713U 25276AZ  26149.78128472  .00000000  00000+0  35851-3 0    03
2 66713 097.4201 223.5774 0006067 076.4745 284.4087 15.19596390    01
0 FLOCK 4BE 24 2514
1 60505U PLANET   26149.78125000  .00000000  00000+0  57932-3 0    02
2 60505 097.3723 233.9812 0003119 013.4189 170.7706 15.42302372    04
0 FLOCK 4BE 20 2515
1 60489U PLANET   26149.78125000  .00000000  00000+0  59637-3 0    07
2 60489 097.3705 231.7397 0002690 354.3546 086.8611 15.37522872    01
0 FLOCK 4BE 19 2518
1 60563U 24149CZ  26149.78125000  .00000000  00000+0  62604-3 0    08
2 60563 097.3752 234.9707 0003604 015.0880 320.0423 15.43442762    04
0 FLOCK 4BE 18 251A
1 60480U PLANET   26149.78125000  .00000000  00000+0  65405-3 0    08
2 60480 097.3737 233.3270 0002354 337.8079 053.3878 15.41203664    03
0 FLOCK 4BE 31 251B
1 60488U PLANET   26149.78125000  .00000000  00000+0  59609-3 0    05
2 60488 097.3805 234.8049 0001713 016.0901 217.5883 15.43305389    04
0 FLOCK 4BE 23 251D
1 60490U PLANET   26149.78123843  .00000000  00000+0  54723-3 0    03
2 60490 097.3787 232.1059 0002606 008.7186 151.1437 15.37167509    04
0 FLOCK 4G 9 251E
1 62622U 25009P   26149.78127315  .00000000  00000+0  47059-3 0    00
2 62622 097.3967 230.8706 0005368 047.4630 186.6293 15.27701263    02
0 FLOCK 4BE 25 251F
1 60487U PLANET   26149.78123843  .00000000  00000+0  51850-3 0    07
2 60487 097.3805 232.8135 0001247 015.4836 171.9154 15.38300920    03
0 FLOCK 4H 9 2520
1 66712U 25276AY  26149.78128472  .00000000  00000+0  37712-3 0    00
2 66712 097.4223 223.8097 0004370 061.4045 332.8378 15.20192693    08
0 FLOCK 4BE 32 2523
1 60497U PLANET   26149.78123843  .00000000  00000+0  60745-3 0    01
2 60497 097.3727 233.5185 0002739 007.4387 130.4349 15.41461152    04
0 FLOCK 4G 1 2526
1 62666U 25009BK  26149.78127315  .00000000  00000+0  56011-3 0    06
2 62666 097.4031 231.8631 0004847 047.3661 145.8659 15.29228259    09
0 FLOCK 4G 2 2527
1 62661U 25009BE  26149.78127315  .00000000  00000+0  60934-3 0    00
2 62661 097.4017 231.8808 0004767 048.9629 033.1234 15.29447396    09
0 FLOCK 4H 2 2528
1 66705U 25276AR  26149.78128472  .00000000  00000+0  43012-3 0    02
2 66705 097.4185 223.7927 0002474 068.9505 184.8831 15.20574930    01
0 FLOCK 4G 8 252B
1 62613U 25009E   26149.78127315  .00000000  00000+0  60595-3 0    00
2 62613 097.4016 231.8682 0004523 041.9061 034.6345 15.29349833    04
0 FLOCK 4G 25 252D
1 62646U 25009AP  26149.78127315  .00000000  00000+0  53198-3 0    07
2 62646 097.4021 231.9495 0002458 056.6869 178.2878 15.29045173    09
0 FLOCK 4G 11 252E
1 62629U 25009W   26149.78127315  .00000000  00000+0  64440-3 0    00
2 62629 097.3930 231.3262 0003366 054.7154 284.2233 15.28922052    01
0 FLOCK 4G 6 2530
1 62660U 25009BD  26149.78127315  .00000000  00000+0  55982-3 0    06
2 62660 097.3951 231.3027 0004220 058.2978 041.8340 15.29151846    03
0 FLOCK 4G 36 2531
1 62675U 25009BU  26149.78130787  .00000000  00000+0  59948-3 0    05
2 62675 097.4022 231.6115 0005156 044.0723 006.7448 15.28929994    05
0 FLOCK 4G 15 2534
1 62678U 25009BX  26149.78130787  .00000000  00000+0  63028-3 0    02
2 62678 097.4023 231.7475 0005110 039.1504 321.5052 15.28970007    01
0 FLOCK 4G 7 2538
1 62624U 25009R   26149.78130787  .00000000  00000+0  60835-3 0    06
2 62624 097.3952 231.2077 0003341 055.1600 178.3452 15.28893417    05
0 FLOCK 4G 26 2539
1 62633U 25009AA  26149.78130787  .00000000  00000+0  57702-3 0    05
2 62633 097.4023 231.8608 0003549 037.1370 203.6086 15.29008244    07
0 FLOCK 4G 17 253A
1 62681U 25009CA  26149.78130787  .00000000  00000+0  57822-3 0    01
2 62681 097.3934 231.2637 0005457 055.3035 131.2603 15.29132907    01
0 FLOCK 4G 12 253B
1 62625U 25009S   26149.78130787  .00000000  00000+0  56637-3 0    02
2 62625 097.4028 231.7166 0004530 038.7924 239.0732 15.28764532    03
0 FLOCK 4G 14 253C
1 62667U 25009BL  26149.78130787  .00000000  00000+0  64812-3 0    02
2 62667 097.4034 231.6897 0004863 041.3360 054.6688 15.28816001    09
0 FLOCK 4G 24 253D
1 62637U 25009AE  26149.78130787  .00000000  00000+0  53912-3 0    08
2 62637 097.4033 232.1349 0002922 028.5441 086.9621 15.29498641    06
0 FLOCK 4G 21 2540
1 62651U 25009AU  26149.78130787  .00000000  00000+0  65749-3 0    05
2 62651 097.3999 232.3221 0002163 057.3873 286.9283 15.30257207    08
0 FLOCK 4H 4 2544
1 66707U 25276AT  26149.78128472  .00000000  00000+0  45709-3 0    09
2 66707 097.4236 223.6299 0006224 075.7576 218.7952 15.19474722    09
0 FLOCK 4H 1 2545
1 66704U 25276AQ  26149.78128472  .00000000  00000+0  35843-3 0    04
2 66704 097.4188 223.7601 0002974 059.4721 094.6955 15.20319541    02
0 FLOCK 4G 34 2546
1 62650U 25009AT  26149.78130787  .00000000  00000+0  52765-3 0    08
2 62650 097.3971 231.4825 0002467 058.5519 186.5484 15.28858633    09
0 FLOCK 4G 29 2547
1 62642U 25009AK  26149.78127315  .00000000  00000+0  46967-3 0    09
2 62642 097.4030 231.8387 0002887 036.2064 169.6358 15.29022426    04
0 FLOCK 4G 31 2549
1 62652U 25009AV  26149.78127315  .00000000  00000+0  58762-3 0    06
2 62652 097.3978 231.4648 0002452 068.5667 044.9904 15.28676657    08
0 FLOCK 4G 27 254A
1 62641U 25009AJ  26149.78127315  .00000000  00000+0  62700-3 0    01
2 62641 097.3945 231.2865 0002761 053.2528 086.6963 15.28900107    07
0 FLOCK 4H 8 254B
1 66711U 25276AX  26149.78128472  .00000000  00000+0  50087-3 0    09
2 66711 097.4236 223.7303 0004981 086.1501 073.4937 15.19895335    09
0 FLOCK 4H 3 254C
1 66706U 25276AS  26149.78128472  .00000000  00000+0  38886-3 0    06
2 66706 097.4249 223.7368 0005398 075.1887 019.4511 15.19704781    08
0 FLOCK 4H 6 254D
1 66709U 25276AV  26149.78128472  .00000000  00000+0  37930-3 0    08
2 66709 097.4237 223.8125 0004288 058.5423 289.0952 15.20053717    00
0 FLOCK 4H 5 254F
1 66708U 25276AU  26149.78128472  .00000000  00000+0  44195-3 0    08
2 66708 097.4188 223.7784 0002101 080.3569 107.4982 15.20373466    02
0 FLOCK 4H 26 2550
1 66729U 25276BR  26149.78128472  .00000000  00000+0  49387-3 0    09
2 66729 097.4202 223.5227 0006436 080.9250 155.1780 15.19356232    06
0 FLOCK 4H 14 2553
1 66717U 25276BD  26149.78128472  .00000000  00000+0  39887-3 0    00
2 66717 097.4214 223.9313 0001740 067.9236 317.4723 15.20785165    01
0 FLOCK 4H 12 2554
1 66715U 25276BB  26149.78128472  .00000000  00000+0  42430-3 0    06
2 66715 097.4196 223.7597 0003113 058.5309 041.1034 15.20243799    01
0 FLOCK 4H 15 2555
1 66718U 25276BE  26149.78128472  .00000000  00000+0  47870-3 0    02
2 66718 097.4231 223.5843 0005956 085.9133 134.1277 15.19335243    08
0 FLOCK 4H 19 2558
1 66722U 25276BJ  26149.78128472  .00000000  00000+0  35067-3 0    02
2 66722 097.4186 223.8957 0001930 046.5930 053.9771 15.20798602    08
0 FLOCK 4H 20 255B
1 66723U 25276BK  26149.78128472  .00000000  00000+0  39815-3 0    08
2 66723 097.4222 223.9693 0002957 037.8729 027.4849 15.20936322    02
0 FLOCK 4H 30 255C
1 66733U 25276BV  26149.78128472  .00000000  00000+0  37221-3 0    08
2 66733 097.4241 223.6701 0005903 082.7054 267.1273 15.19590603    05
0 FLOCK 4H 22 255D
1 66725U 25276BM  26149.78128472  .00000000  00000+0  48923-3 0    00
2 66725 097.4182 223.5978 0004287 096.2790 073.5978 15.19918925    08
0 FLOCK 4H 36 255E
1 66739U 25276CB  26149.78128472  .00000000  00000+0  39814-3 0    04
2 66739 097.4251 223.8872 0003319 050.7196 017.5955 15.20186987    06
0 FLOCK 4H 24 255F
1 66727U 25276BP  26149.78128472  .00000000  00000+0  35089-3 0    01
2 66727 097.4245 223.6944 0005605 083.6749 290.8955 15.19608399    03
0 FLOCK 4H 32 2560
1 66735U 25276BX  26149.78128472  .00000000  00000+0  39551-3 0    08
2 66735 097.4235 223.6374 0006331 079.8426 237.3866 15.19513498    06
0 FLOCK 4H 16 2562
1 66719U 25276BF  26149.78128472  .00000000  00000+0  43031-3 0    08
2 66719 097.4246 223.6673 0005930 077.5557 249.1703 15.19572139    04
0 FLOCK 4H 34 2563
1 66737U 25276BZ  26149.78128472  .00000000  00000+0  46935-3 0    04
2 66737 097.4246 223.8926 0002901 043.6648 087.6527 15.20242485    06
0 FLOCK 4H 23 2565
1 66726U 25276BN  26149.78128472  .00000000  00000+0  42712-3 0    01
2 66726 097.4252 223.6700 0005917 071.5357 236.9665 15.19510802    07
0 FLOCK 4H 31 256C
1 66734U 25276BW  26149.78128472  .00000000  00000+0  48689-3 0    09
2 66734 097.4180 223.4831 0005490 088.2831 182.5786 15.19399801    01
0 FLOCK 4H 25 256E
1 66728U 25276BQ  26149.78128472  .00000000  00000+0  42222-3 0    09
2 66728 097.4205 223.8330 0001515 076.8526 158.4133 15.20433591    03
0 FLOCK 4H 18 2570
1 66721U 25276BH  26149.78128472  .00000000  00000+0  42880-3 0    02
2 66721 097.4189 223.5195 0005653 094.3933 207.3886 15.19530362    08
0 FLOCK 4H 21 2571
1 66724U 25276BL  26149.78128472  .00000000  00000+0  33969-3 0    03
2 66724 097.4193 223.8426 0002954 044.3129 277.4393 15.20527522    06
0 FLOCK 4H 29 2575
1 66732U 25276BU  26149.78128472  .00000000  00000+0  38522-3 0    02
2 66732 097.4181 223.5085 0005102 092.1034 233.2601 15.19493109    07
0 FLOCK 4H 33 2579
1 66736U 25276BY  26149.78128472  .00000000  00000+0  30780-3 0    04
2 66736 097.4231 223.9519 0002554 039.6644 314.9854 15.20683276    09
0 FLOCK 4H 35 257A
1 66738U 25276CA  26149.78128472  .00000000  00000+0  43209-3 0    06
2 66738 097.4208 223.8458 0002154 040.1791 200.6127 15.20432199    02
0 PELICAN 1 3001 3001
1 58296U 23174AS  26149.78122685  .00000000  00000+0  87085-3 0    01
2 58296 097.4003 248.9910 0000895 094.9637 157.3023 15.72978815    02
0 PELICAN 2 3009 3009
1 62631U 25009Y   26149.78121528  .00000000  00000+0  40239-3 0    03
2 62631 097.3005 240.6728 0001139 045.9981 235.8166 15.40653508    01
0 PELICAN 3 300A 300A
1 65315U PLANET   26149.78122685  .00000000  00000+0  25558-3 0    01
2 65315 097.1976 226.2090 0002613 100.9046 171.0211 15.40901983    07
0 PELICAN 4 300B 300B
1 65316U PLANET   26149.78126157  .00000000  00000+0  31423-3 0    08
2 65316 097.1998 226.3580 0001910 102.1480 080.1002 15.40724608    07
0 PELICAN 5 300C 300C
1 66667U 25276B   26149.85186343  .00000000  00000+0  21504-3 0    00
2 66667 097.4120 224.8833 0003892 062.8445 095.4978 15.29022632    01
0 PELICAN 6 300D 300D
1 66703U 25276AP  26149.78123843  .00000000  00000+0  30773-3 0    07
2 66703 097.4104 224.9923 0000910 057.3499 103.0126 15.29454004    04
0 PELICAN 7 300E 300E
1 69017U PLANET   26149.78125000  .00000000  00000+0 -26518-3 0    06
2 69017 097.4081 047.9447 0003008 073.2815 231.6560 15.21235237    00
0 EDDA 1 300F 300F
1 69018U PLANET   26149.82074074  .00000000  00000+0 -29069-3 0    00
2 69018 097.4075 047.9733 0005479 086.6741 053.6439 15.20415350    04
0 PELICAN 9 3010 3010
1 69019U 26100AR  26149.78127315  .00000000  00000+0 -26716-3 0    08
2 69019 097.4064 047.9343 0006590 091.4278 207.4940 15.20359361    09
0 TANAGER 1 4001 4001
1 60507U PLANET   26149.82325231  .00000000  00000+0  49846-3 0    02
2 60507 097.2924 244.0481 0004235 018.6642 309.2240 15.44760316    04
0 SKYSAT A S1
1 39418U 13066C   26149.78475694  .00000000  00000+0  31866-3 0    02
2 39418 097.3831 199.7683 0021950 022.7802 229.8000 15.12860522    02
0 SKYSAT C4 S104
1 41771U 16058B   26149.78484954  .00000000  00000+0  43366-3 0    08
2 41771 096.9180 172.3347 0001644 070.7352 298.0765 15.47949721    07
0 SKYSAT C5 S105
1 41772U 16058C   26149.78484954  .00000000  00000+0  34003-3 0    07
2 41772 097.0486 191.2486 0003221 035.2486 003.6620 15.34174600    02
0 SKYSAT C6 S106
1 42992U 17068F   26149.78484954  .00000000  00000+0  52816-3 0    06
2 42992 097.4541 287.2135 0002336 177.2380 359.0580 15.34099456    04
0 SKYSAT C7 S107
1 42991U 17068E   26149.78484954  .00000000  00000+0  53296-3 0    08
2 42991 097.4507 287.1788 0006572 161.3867 311.4916 15.36514387    00
0 SKYSAT C8 S108
1 42990U 17068D   26149.78484954  .00000000  00000+0  54359-3 0    08
2 42990 097.4496 286.1905 0001673 104.7385 329.3078 15.36570598    02
0 SKYSAT C9 S109
1 42989U 17068C   26149.78484954  .00000000  00000+0  58379-3 0    02
2 42989 097.4400 287.2212 0008319 194.3573 074.7469 15.41054551    03
0 SKYSAT C10 S110
1 42988U 17068B   26149.78484954  .00000000  00000+0  53429-3 0    02
2 42988 097.4479 286.4602 0001537 092.2552 336.4159 15.34283471    01
0 SKYSAT C11 S111
1 42987U 17068A   26149.78484954  .00000000  00000+0  54372-3 0    09
2 42987 097.4327 297.8314 0001431 097.1578 123.5775 15.56849191    03
0 SKYSAT C12 S112
1 43797U 18099AR  26149.78484954  .00000000  00000+0  45922-3 0    05
2 43797 096.9271 173.7703 0003501 185.8914 047.0090 15.48245339    03
0 SKYSAT C13 S113
1 43802U 18099AW  26149.78484954  .00000000  00000+0  69376-3 0    01
2 43802 096.9141 198.6610 0004640 206.2083 204.8290 16.00549132    01
0 SKYSAT C1 S3
1 41601U 16040C   26149.78475694  .00000000  00000+0  32375-3 0    00
2 41601 096.9574 182.5055 0004424 094.6537 283.6961 15.35951102    05
0 SKYSAT C2 S4
1 41773U 16058D   26149.78475694  .00000000  00000+0  34423-3 0    05
2 41773 097.0175 172.5776 0005204 109.8880 011.1120 15.41603227    00
